start=new Date('2023-06-09T00:00:00.000Z').valueOf();
sats=[{"ELEMENT_SET_NO":"999","OBJECT_ID":"2022-022C","COUNTRY_CODE":"US","APOAPSIS":"540.373","PERIAPSIS":"539.141","CLASSIFICATION_TYPE":"U","TIME_SYSTEM":"UTC","REV_AT_EPOCH":"7127","TLE_LINE2":"2 51854  53.2155 211.4893 0000890  86.2649 273.8445 15.08836251 71275","PERIOD":"95.438","MEAN_MOTION":"15.08836251","MEAN_ANOMALY":"273.8445","RCS_SIZE":"LARGE","REF_FRAME":"TEME","MEAN_MOTION_DDOT":"0.0000000000000","FILE":"3928007","EPOCH":"2023-06-08T12:33:45.081216","SITE":"AFETR","BSTAR":"0.00009373500000","GP_ID":"233472847","SEMIMAJOR_AXIS":"6917.892","CENTER_NAME":"EARTH","EPHEMERIS_TYPE":"0","OBJECT_TYPE":"PAYLOAD","ECCENTRICITY":"0.00008900","DECAY_DATE":null,"LAUNCH_DATE":"2022-03-03","TLE_LINE1":"1 51854U 22022C   23159.52343844  .00001204  00000-0  93735-4 0  9992","MEAN_MOTION_DOT":"0.00001204","OBJECT_NAME":"STARLINK-3541","INCLINATION":"53.2155","MEAN_ELEMENT_THEORY":"SGP4","NORAD_CAT_ID":"51854","RA_OF_ASC_NODE":"211.4893","ARG_OF_PERICENTER":"86.2649"},{"MEAN_ELEMENT_THEORY":"SGP4","NORAD_CAT_ID":"51855","RA_OF_ASC_NODE":"212.1152","ARG_OF_PERICENTER":"347.1566","OBJECT_TYPE":"PAYLOAD","DECAY_DATE":null,"ECCENTRICITY":"0.00072090","TLE_LINE1":"1 51855U 22022D   23159.38086522 -.00000306  00000-0 -96460-6 0  9998","LAUNCH_DATE":"2022-03-03","MEAN_MOTION_DOT":"-0.00000306","OBJECT_NAME":"STARLINK-3545","INCLINATION":"53.2164","EPOCH":"2023-06-08T09:08:26.755008","SITE":"AFETR","BSTAR":"-0.00000096460000","GP_ID":"233473097","SEMIMAJOR_AXIS":"6917.910","CENTER_NAME":"EARTH","EPHEMERIS_TYPE":"0","ELEMENT_SET_NO":"999","OBJECT_ID":"2022-022D","COUNTRY_CODE":"US","APOAPSIS":"544.762","PERIAPSIS":"534.788","CLASSIFICATION_TYPE":"U","TIME_SYSTEM":"UTC","PERIOD":"95.438","TLE_LINE2":"2 51855  53.2164 212.1152 0007209 347.1566  12.9241 15.08830352 71205","REV_AT_EPOCH":"7120","MEAN_MOTION":"15.08830352","MEAN_ANOMALY":"12.9241","RCS_SIZE":"LARGE","REF_FRAME":"TEME","MEAN_MOTION_DDOT":"0.0000000000000","FILE":"3928007"},{"COUNTRY_CODE":"US","ELEMENT_SET_NO":"999","OBJECT_ID":"2022-022E","CLASSIFICATION_TYPE":"U","PERIAPSIS":"539.080","APOAPSIS":"540.440","TIME_SYSTEM":"UTC","PERIOD":"95.438","TLE_LINE2":"2 51856  53.2162 211.5112 0000983  88.5816 271.5288 15.08835297 71307","REV_AT_EPOCH":"7130","MEAN_ANOMALY":"271.5288","MEAN_MOTION":"15.08835297","RCS_SIZE":"LARGE","MEAN_MOTION_DDOT":"0.0000000000000","FILE":"3928007","REF_FRAME":"TEME","SITE":"AFETR","EPOCH":"2023-06-08T12:29:49.966944","BSTAR":"0.00010314000000","GP_ID":"233473849","SEMIMAJOR_AXIS":"6917.895","CENTER_NAME":"EARTH","EPHEMERIS_TYPE":"0","OBJECT_TYPE":"PAYLOAD","ECCENTRICITY":"0.00009830","DECAY_DATE":null,"LAUNCH_DATE":"2022-03-03","TLE_LINE1":"1 51856U 22022E   23159.52071721  .00001354  00000-0  10314-3 0  9993","MEAN_MOTION_DOT":"0.00001354","OBJECT_NAME":"STARLINK-3568","INCLINATION":"53.2162","MEAN_ELEMENT_THEORY":"SGP4","NORAD_CAT_ID":"51856","RA_OF_ASC_NODE":"211.5112","ARG_OF_PERICENTER":"88.5816"},{"MEAN_ELEMENT_THEORY":"SGP4","NORAD_CAT_ID":"51857","RA_OF_ASC_NODE":"211.8475","ARG_OF_PERICENTER":"69.7484","OBJECT_TYPE":"PAYLOAD","ECCENTRICITY":"0.00005470","DECAY_DATE":null,"LAUNCH_DATE":"2022-03-03","TLE_LINE1":"1 51857U 22022F   23159.44247378 -.00000184  00000-0  64944-5 0  9999","MEAN_MOTION_DOT":"-0.00000184","OBJECT_NAME":"STARLINK-3571","INCLINATION":"53.2156","SITE":"AFETR","EPOCH":"2023-06-08T10:37:09.734592","BSTAR":"0.00000649440000","GP_ID":"233479340","SEMIMAJOR_AXIS":"6917.873","CENTER_NAME":"EARTH","EPHEMERIS_TYPE":"0","COUNTRY_CODE":"US","ELEMENT_SET_NO":"999","OBJECT_ID":"2022-022F","CLASSIFICATION_TYPE":"U","PERIAPSIS":"539.360","APOAPSIS":"540.117","TIME_SYSTEM":"UTC","REV_AT_EPOCH":"7126","TLE_LINE2":"2 51857  53.2156 211.8475 0000547  69.7484 290.3567 15.08842325 71268","PERIOD":"95.437","MEAN_ANOMALY":"290.3567","MEAN_MOTION":"15.08842325","RCS_SIZE":"LARGE","FILE":"3928129","MEAN_MOTION_DDOT":"0.0000000000000","REF_FRAME":"TEME"},{"RCS_SIZE":"LARGE","MEAN_ANOMALY":"284.8120","MEAN_MOTION":"15.08835604","FILE":"3928007","MEAN_MOTION_DDOT":"0.0000000000000","REF_FRAME":"TEME","CLASSIFICATION_TYPE":"U","PERIAPSIS":"539.139","APOAPSIS":"540.379","COUNTRY_CODE":"US","ELEMENT_SET_NO":"999","OBJECT_ID":"2022-022G","TLE_LINE2":"2 51858  53.2160 211.5360 0000896  75.2971 284.8120 15.08835604 71270","REV_AT_EPOCH":"7127","PERIOD":"95.438","TIME_SYSTEM":"UTC","SEMIMAJOR_AXIS":"6917.894","EPHEMERIS_TYPE":"0","CENTER_NAME":"EARTH","BSTAR":"0.00008064600000","SITE":"AFETR","EPOCH":"2023-06-08T12:17:51.180288","GP_ID":"233472347","MEAN_MOTION_DOT":"0.00000996","LAUNCH_DATE":"2022-03-03","TLE_LINE1":"1 51858U 22022G   23159.51239792  .00000996  00000-0  80646-4 0  9995","INCLINATION":"53.2160","OBJECT_NAME":"STARLINK-3563","OBJECT_TYPE":"PAYLOAD","ECCENTRICITY":"0.00008960","DECAY_DATE":null,"ARG_OF_PERICENTER":"75.2971","MEAN_ELEMENT_THEORY":"SGP4","RA_OF_ASC_NODE":"211.5360","NORAD_CAT_ID":"51858"},{"CENTER_NAME":"EARTH","EPHEMERIS_TYPE":"0","SEMIMAJOR_AXIS":"6917.882","GP_ID":"233472597","SITE":"AFETR","EPOCH":"2023-06-08T12:41:45.075552","BSTAR":"0.00005464100000","FILE":"3928007","MEAN_MOTION_DDOT":"0.0000000000000","REF_FRAME":"TEME","MEAN_ANOMALY":"275.0991","MEAN_MOTION":"15.08839586","RCS_SIZE":"LARGE","TIME_SYSTEM":"UTC","TLE_LINE2":"2 51859  53.2151 201.4715 0001037  85.0119 275.0991 15.08839586 71411","PERIOD":"95.438","REV_AT_EPOCH":"7141","COUNTRY_CODE":"US","OBJECT_ID":"2022-022H","ELEMENT_SET_NO":"999","CLASSIFICATION_TYPE":"U","APOAPSIS":"540.464","PERIAPSIS":"539.029","ARG_OF_PERICENTER":"85.0119","NORAD_CAT_ID":"51859","RA_OF_ASC_NODE":"201.4715","MEAN_ELEMENT_THEORY":"SGP4","OBJECT_NAME":"STARLINK-3560","INCLINATION":"53.2151","LAUNCH_DATE":"2022-03-03","TLE_LINE1":"1 51859U 22022H   23159.52899393  .00000582  00000-0  54641-4 0  9993","MEAN_MOTION_DOT":"0.00000582","ECCENTRICITY":"0.00010370","DECAY_DATE":null,"OBJECT_TYPE":"PAYLOAD"},{"ARG_OF_PERICENTER":"117.3556","MEAN_ELEMENT_THEORY":"SGP4","NORAD_CAT_ID":"51860","RA_OF_ASC_NODE":"202.3235","TLE_LINE1":"1 51860U 22022J   23159.33667848  .00000612  00000-0  56500-4 0  9992","LAUNCH_DATE":"2022-03-03","MEAN_MOTION_DOT":"0.00000612","OBJECT_NAME":"STARLINK-3559","INCLINATION":"53.2131","OBJECT_TYPE":"PAYLOAD","ECCENTRICITY":"0.00009480","DECAY_DATE":null,"SEMIMAJOR_AXIS":"6917.859","CENTER_NAME":"EARTH","EPHEMERIS_TYPE":"0","SITE":"AFETR","EPOCH":"2023-06-08T08:04:49.020672","BSTAR":"0.00005650000000","GP_ID":"233473349","MEAN_ANOMALY":"242.7533","MEAN_MOTION":"15.08847150","RCS_SIZE":"LARGE","MEAN_MOTION_DDOT":"0.0000000000000","FILE":"3928007","REF_FRAME":"TEME","COUNTRY_CODE":"US","ELEMENT_SET_NO":"999","OBJECT_ID":"2022-022J","CLASSIFICATION_TYPE":"U","PERIAPSIS":"539.068","APOAPSIS":"540.379","TIME_SYSTEM":"UTC","PERIOD":"95.437","TLE_LINE2":"2 51860  53.2131 202.3235 0000948 117.3556 242.7533 15.08847150 71343","REV_AT_EPOCH":"7134"},{"MEAN_ELEMENT_THEORY":"SGP4","NORAD_CAT_ID":"51861","RA_OF_ASC_NODE":"202.0957","ARG_OF_PERICENTER":"79.9112","OBJECT_TYPE":"PAYLOAD","ECCENTRICITY":"0.00010560","DECAY_DATE":null,"TLE_LINE1":"1 51861U 22022K   23159.38820121  .00000032  00000-0  20083-4 0  9996","LAUNCH_DATE":"2022-03-03","MEAN_MOTION_DOT":"0.00000032","OBJECT_NAME":"STARLINK-3562","INCLINATION":"53.2154","SITE":"AFETR","EPOCH":"2023-06-08T09:19:00.584544","BSTAR":"0.00002008300000","GP_ID":"233473597","SEMIMAJOR_AXIS":"6917.890","CENTER_NAME":"EARTH","EPHEMERIS_TYPE":"0","COUNTRY_CODE":"US","ELEMENT_SET_NO":"999","OBJECT_ID":"2022-022K","CLASSIFICATION_TYPE":"U","APOAPSIS":"540.485","PERIAPSIS":"539.024","TIME_SYSTEM":"UTC","REV_AT_EPOCH":"7126","TLE_LINE2":"2 51861  53.2154 202.0957 0001056  79.9112 280.1999 15.08837013 71269","PERIOD":"95.438","MEAN_ANOMALY":"280.1999","MEAN_MOTION":"15.08837013","RCS_SIZE":"LARGE","FILE":"3928007","MEAN_MOTION_DDOT":"0.0000000000000","REF_FRAME":"TEME"},{"EPHEMERIS_TYPE":"0","CENTER_NAME":"EARTH","SEMIMAJOR_AXIS":"6917.895","GP_ID":"233472848","BSTAR":"0.00000477480000","SITE":"AFETR","EPOCH":"2023-06-08T12:45:40.351392","FILE":"3928007","MEAN_MOTION_DDOT":"0.0000000000000","REF_FRAME":"TEME","RCS_SIZE":"LARGE","MEAN_ANOMALY":"272.3466","MEAN_MOTION":"15.08835207","REV_AT_EPOCH":"7142","TLE_LINE2":"2 51862  53.2155 201.4489 0000974  87.7638 272.3466 15.08835207 71425","PERIOD":"95.438","TIME_SYSTEM":"UTC","CLASSIFICATION_TYPE":"U","PERIAPSIS":"539.086","APOAPSIS":"540.434","COUNTRY_CODE":"US","ELEMENT_SET_NO":"999","OBJECT_ID":"2022-022L","ARG_OF_PERICENTER":"87.7638","RA_OF_ASC_NODE":"201.4489","NORAD_CAT_ID":"51862","MEAN_ELEMENT_THEORY":"SGP4","INCLINATION":"53.2155","OBJECT_NAME":"STARLINK-3508","MEAN_MOTION_DOT":"-0.00000212","TLE_LINE1":"1 51862U 22022L   23159.53171703 -.00000212  00000-0  47748-5 0  9998","LAUNCH_DATE":"2022-03-03","ECCENTRICITY":"0.00009740","DECAY_DATE":null,"OBJECT_TYPE":"PAYLOAD"},{"SEMIMAJOR_AXIS":"6917.882","EPHEMERIS_TYPE":"0","CENTER_NAME":"EARTH","BSTAR":"0.00001972400000","SITE":"AFETR","EPOCH":"2023-06-08T12:19:10.931808","GP_ID":"233479355","RCS_SIZE":"LARGE","MEAN_ANOMALY":"278.3797","MEAN_MOTION":"15.08839599","MEAN_MOTION_DDOT":"0.0000000000000","FILE":"3928130","REF_FRAME":"TEME","CLASSIFICATION_TYPE":"U","PERIAPSIS":"539.080","APOAPSIS":"540.413","COUNTRY_CODE":"US","OBJECT_ID":"2022-022M","ELEMENT_SET_NO":"999","PERIOD":"95.438","TLE_LINE2":"2 51863  53.2157 201.5322 0000964  81.7304 278.3797 15.08839599 71362","REV_AT_EPOCH":"7136","TIME_SYSTEM":"UTC","ARG_OF_PERICENTER":"81.7304","MEAN_ELEMENT_THEORY":"SGP4","RA_OF_ASC_NODE":"201.5322","NORAD_CAT_ID":"51863","MEAN_MOTION_DOT":"0.00000026","TLE_LINE1":"1 51863U 22022M   23159.51332097  .00000026  00000-0  19724-4 0  9996","LAUNCH_DATE":"2022-03-03","INCLINATION":"53.2157","OBJECT_NAME":"STARLINK-3555","OBJECT_TYPE":"PAYLOAD","DECAY_DATE":null,"ECCENTRICITY":"0.00009640"}];
